ONEWEB-0233             
1 48795U 21045AE  26196.92061355  .00000183  00000+0  45080-3 0  9991
2 48795  87.8982 253.5093 0002271 104.2420 255.8963 13.15550680248072
ONEWEB-0190             
1 48796U 21045AF  26196.52779321  .00000279  00000+0  70641-3 0  9994
2 48796  87.8993 253.5511 0002263 116.9038 243.2324 13.15549450248093
ONEWEB-0236             
1 48797U 21045AG  26196.54522708  .00000214  00000+0  53546-3 0  9996
2 48797  87.8984 253.5554 0002151  95.9596 264.1780 13.15548910247987
ONEWEB-0248             
1 48798U 21045AH  26196.17760870  .00000031  00000+0  48121-4 0  9991
2 48798  87.8995 253.6154 0002448 106.6718 253.4681 13.15549505248097
ONEWEB-0225             
1 48799U 21045AJ  26196.19980040 -.00000019  00000+0 -85643-4 0  9995
2 48799  87.8988 253.6177 0002239 112.1710 247.9658 13.15547866248109
ONEWEB-0215             
1 48800U 21045AK  26196.54997164  .00000090  00000+0  20395-3 0  9991
2 48800  87.8997 253.5321 0002422 113.9361 246.2023 13.15549259248024
ONEWEB-0216             
1 48801U 21045AL  26196.17919952 -.00000012  00000+0 -65868-4 0  9991
2 48801  87.8993 253.6199 0002012  97.3403 262.7956 13.15548532247987
ONEWEB-0239             
1 48802U 21045AM  26196.18395475 -.00000013  00000+0 -68325-4 0  9993
2 48802  87.8981 253.6229 0002734 111.1498 248.9925 13.15548141248023
ONEWEB-0249             
1 48967U 21060A   26196.47573575  .00000002  00000+0 -27545-4 0  9999
2 48967  87.9080 223.1588 0002170  95.3976 264.7403 13.16592290243335
ONEWEB-0250             
1 48968U 21060B   26196.75886384  .00000113  00000+0  22799-3 0  9993
2 48968  87.9080 220.7658 0003061  85.6250 274.5236 13.25835589244003
ONEWEB-0252             
1 48970U 21060D   26196.50662809  .00000049  00000+0  95226-4 0  9997
2 48970  87.9078 223.1450 0001858  96.4106 263.7236 13.16595008243381
ONEWEB-0253             
1 48971U 21060E   26196.49554652 -.00000003  00000+0 -42145-4 0  9996
2 48971  87.9079 223.1525 0002215  93.5373 266.6012 13.16595129243319
ONEWEB-0254             
1 48972U 21060F   26196.50505273  .00000036  00000+0  61495-4 0  9997
2 48972  87.9080 223.1489 0002321  99.0591 261.0802 13.16593965243314
ONEWEB-0255             
1 48973U 21060G   26196.54305039  .00000061  00000+0  12479-3 0  9995
2 48973  87.9080 223.1472 0002161  98.2698 261.8678 13.16594293243390
ONEWEB-0256             
1 48974U 21060H   26196.49317110 -.00001155  00000+0 -30560-2 0  9990
2 48974  87.9072 223.1600 0001771  92.9280 267.2054 13.16583303243353
ONEWEB-0257             
1 48975U 21060J   26196.52563177  .00000309  00000+0  77505-3 0  9990
2 48975  87.9079 223.1421 0002084 100.3125 259.8241 13.16595849243311
